{"type": "FeatureCollection", "features": [ {"type": "Feature", "properties": {"norad_id": 39122, "name": "EUTELSAT 117 WEST A", "group": "eutelsat", "lat": -0.02069299095992553, "lon": -163.47364114517464, "alt_km": 35780.38015566271, "timestamp": "2025-12-08T15:42:49.450000+00:00", "meta": {"OBJECT_NAME": "EUTELSAT 117 WEST A", "OBJECT_ID": "2013-012A", "EPOCH": "2025-12-08T05:51:36.789120", "MEAN_MOTION": 1.00270355, "ECCENTRICITY": 0.00031196, "INCLINATION": 0.013, "RA_OF_ASC_NODE": 339.7183, "ARG_OF_PERICENTER": 279.3607, "MEAN_ANOMALY": 149.2785, "EPHEMERIS_TYPE": 0, "CLASSIFICATION_TYPE": "U", "NORAD_CAT_ID": 39122, "ELEMENT_SET_NO": 999, "REV_AT_EPOCH": 4651, "BSTAR": 0, "MEAN_MOTION_DOT": -1e-07, "MEAN_MOTION_DDOT": 0}, "tle": {"line1": "1 39122U 13012A   25342.24417580 -.00000010  00000+0  00000+0 0  9991", "line2": "2 39122   0.0130 339.7183 0003119 279.3607 149.2785  1.00270355 46510"}}, "geometry": {"type": "Point", "coordinates": [-163.47364114517464, -0.02069299095992553]}}, {"type": "Feature", "properties": {"norad_id": 39163, "name": "EUTELSAT 7B", "group": "eutelsat", "lat": -0.06373321607374288, "lon": -39.6479666341079, "alt_km": 35767.32422355343, "timestamp": "2025-12-08T15:42:49.450012+00:00", "meta": {"OBJECT_NAME": "EUTELSAT 7B", "OBJECT_ID": "2013-022A", "EPOCH": "2025-12-08T05:04:39.067392", "MEAN_MOTION": 1.00271135, "ECCENTRICITY": 0.00045284, "INCLINATION": 0.0699, "RA_OF_ASC_NODE": 11.6404, "ARG_OF_PERICENTER": 301.859, "MEAN_ANOMALY": 206.8716, "EPHEMERIS_TYPE": 0, "CLASSIFICATION_TYPE": "U", "NORAD_CAT_ID": 39163, "ELEMENT_SET_NO": 999, "REV_AT_EPOCH": 4604, "BSTAR": 0, "MEAN_MOTION_DOT": 5e-07, "MEAN_MOTION_DDOT": 0}, "tle": {"line1": "1 39163U 13022A   25342.21156328  .00000050  00000+0  00000+0 0  9997", "line2": "2 39163   0.0699  11.6404 0004528 301.8590 206.8716  1.00271135 46043"}}, "geometry": {"type": "Point", "coordinates": [-39.6479666341079, -0.06373321607374288]}}, {"type": "Feature", "properties": {"norad_id": 39612, "name": "EXPRESS-AT1", "group": "eutelsat", "lat": 0.01834789078813721, "lon": 9.35719181007785, "alt_km": 35787.48858522329, "timestamp": "2025-12-08T15:42:49.450024+00:00", "meta": {"OBJECT_NAME": "EXPRESS-AT1", "OBJECT_ID": "2014-010A", "EPOCH": "2025-12-08T03:35:55.065696", "MEAN_MOTION": 1.00271876, "ECCENTRICITY": 3.625e-05, "INCLINATION": 0.0163, "RA_OF_ASC_NODE": 340.3658, "ARG_OF_PERICENTER": 195.6307, "MEAN_ANOMALY": 11.1418, "EPHEMERIS_TYPE": 0, "CLASSIFICATION_TYPE": "U", "NORAD_CAT_ID": 39612, "ELEMENT_SET_NO": 999, "REV_AT_EPOCH": 4290, "BSTAR": 0, "MEAN_MOTION_DOT": 0, "MEAN_MOTION_DDOT": 0}, "tle": {"line1": "1 39612U 14010A   25342.14994289  .00000000  00000+0  00000+0 0  9997", "line2": "2 39612   0.0163 340.3658 0000362 195.6307  11.1418  1.00271876 42907"}}, "geometry": {"type": "Point", "coordinates": [9.35719181007785, 0.01834789078813721]}}, {"type": "Feature", "properties": {"norad_id": 39613, "name": "EXPRESS-AT2", "group": "eutelsat", "lat": 0.0249559215666518, "lon": 93.22300080179599, "alt_km": 35792.42774805304, "timestamp": "2025-12-08T15:42:49.450036+00:00", "meta": {"OBJECT_NAME": "EXPRESS-AT2", "OBJECT_ID": "2014-010B", "EPOCH": "2025-12-08T07:25:12.778752", "MEAN_MOTION": 1.00272601, "ECCENTRICITY": 0.00015629, "INCLINATION": 0.0167, "RA_OF_ASC_NODE": 306.0443, "ARG_OF_PERICENTER": 335.6983, "MEAN_ANOMALY": 46.7381, "EPHEMERIS_TYPE": 0, "CLASSIFICATION_TYPE": "U", "NORAD_CAT_ID": 39613, "ELEMENT_SET_NO": 999, "REV_AT_EPOCH": 4258, "BSTAR": 0, "MEAN_MOTION_DOT": -2.78e-06, "MEAN_MOTION_DDOT": 0}, "tle": {"line1": "1 39613U 14010B   25342.30917568 -.00000278  00000+0  00000+0 0  9999", "line2": "2 39613   0.0167 306.0443 0001562 335.6983  46.7381  1.00272601 42586"}}, "geometry": {"type": "Point", "coordinates": [93.22300080179599, 0.0249559215666518]}}, {"type": "Feature", "properties": {"norad_id": 39773, "name": "EUTELSAT 3B", "group": "eutelsat", "lat": -0.06613850720594952, "lon": -43.48310449497229, "alt_km": 35783.887444942106, "timestamp": "2025-12-08T15:42:49.450048+00:00", "meta": {"OBJECT_NAME": "EUTELSAT 3B", "OBJECT_ID": "2014-030A", "EPOCH": "2025-12-08T01:37:58.861632", "MEAN_MOTION": 1.00272157, "ECCENTRICITY": 0.00046528, "INCLINATION": 0.0657, "RA_OF_ASC_NODE": 14.3376, "ARG_OF_PERICENTER": 217.9567, "MEAN_ANOMALY": 232.3839, "EPHEMERIS_TYPE": 0, "CLASSIFICATION_TYPE": "U", "NORAD_CAT_ID": 39773, "ELEMENT_SET_NO": 999, "REV_AT_EPOCH": 4215, "BSTAR": 0, "MEAN_MOTION_DOT": 2.3e-07, "MEAN_MOTION_DDOT": 0}, "tle": {"line1": "1 39773U 14030A   25342.06804238  .00000023  00000+0  00000+0 0  9997", "line2": "2 39773   0.0657  14.3376 0004652 217.9567 232.3839  1.00272157 42154"}}, "geometry": {"type": "Point", "coordinates": [-43.48310449497229, -0.06613850720594952]}}, {"type": "Feature", "properties": {"norad_id": 40425, "name": "EUTELSAT 115 WEST B", "group": "eutelsat", "lat": 0.0075548293878610825, "lon": -161.5364986128895, "alt_km": 35787.96886325888, "timestamp": "2025-12-08T15:42:49.450060+00:00", "meta": {"OBJECT_NAME": "EUTELSAT 115 WEST B", "OBJECT_ID": "2015-010B", "EPOCH": "2025-12-08T01:04:24.577824", "MEAN_MOTION": 1.00265397, "ECCENTRICITY": 1.304e-05, "INCLINATION": 0.0096, "RA_OF_ASC_NODE": 159.4384, "ARG_OF_PERICENTER": 297.017, "MEAN_ANOMALY": 241.8202, "EPHEMERIS_TYPE": 0, "CLASSIFICATION_TYPE": "U", "NORAD_CAT_ID": 40425, "ELEMENT_SET_NO": 999, "REV_AT_EPOCH": 3947, "BSTAR": 0, "MEAN_MOTION_DOT": -2.1e-07, "MEAN_MOTION_DDOT": 0}, "tle": {"line1": "1 40425U 15010B   25342.04472891 -.00000021  00000+0  00000+0 0  9995", "line2": "2 40425   0.0096 159.4384 0000130 297.0170 241.8202  1.00265397 39471"}}, "geometry": {"type": "Point", "coordinates": [-161.5364986128895, 0.0075548293878610825]}}, {"type": "Feature", "properties": {"norad_id": 40875, "name": "EUTELSAT 8 WEST B", "group": "eutelsat", "lat": -0.06518098286288188, "lon": -54.59183140486821, "alt_km": 35774.16232803532, "timestamp": "2025-12-08T15:42:49.450071+00:00", "meta": {"OBJECT_NAME": "EUTELSAT 8 WEST B", "OBJECT_ID": "2015-039B", "EPOCH": "2025-12-08T06:42:59.648256", "MEAN_MOTION": 1.00271425, "ECCENTRICITY": 0.00041396, "INCLINATION": 0.0646, "RA_OF_ASC_NODE": 358.0552, "ARG_OF_PERICENTER": 260.6381, "MEAN_ANOMALY": 271.3584, "EPHEMERIS_TYPE": 0, "CLASSIFICATION_TYPE": "U", "NORAD_CAT_ID": 40875, "ELEMENT_SET_NO": 999, "REV_AT_EPOCH": 3774, "BSTAR": 0, "MEAN_MOTION_DOT": -6.3e-07, "MEAN_MOTION_DDOT": 0}, "tle": {"line1": "1 40875U 15039B   25342.27985704 -.00000063  00000+0  00000+0 0  9998", "line2": "2 40875   0.0646 358.0552 0004139 260.6381 271.3584  1.00271425 37746"}}, "geometry": {"type": "Point", "coordinates": [-54.59183140486821, -0.06518098286288188]}}, {"type": "Feature", "properties": {"norad_id": 41310, "name": "EUTELSAT 9B", "group": "eutelsat", "lat": -0.07691413185167215, "lon": -37.5854190111161, "alt_km": 35773.098384081546, "timestamp": "2025-12-08T15:42:49.450083+00:00", "meta": {"OBJECT_NAME": "EUTELSAT 9B", "OBJECT_ID": "2016-005A", "EPOCH": "2025-12-08T03:22:26.357376", "MEAN_MOTION": 1.00273093, "ECCENTRICITY": 0.00050117, "INCLINATION": 0.078, "RA_OF_ASC_NODE": 76.11, "ARG_OF_PERICENTER": 192.7395, "MEAN_ANOMALY": 227.9175, "EPHEMERIS_TYPE": 0, "CLASSIFICATION_TYPE": "U", "NORAD_CAT_ID": 41310, "ELEMENT_SET_NO": 999, "REV_AT_EPOCH": 3620, "BSTAR": 0, "MEAN_MOTION_DOT": 6.5e-07, "MEAN_MOTION_DDOT": 0}, "tle": {"line1": "1 41310U 16005A   25342.14058284  .00000065  00000+0  00000+0 0  9998", "line2": "2 41310   0.0780  76.1100 0005011 192.7395 227.9175  1.00273093 36203"}}, "geometry": {"type": "Point", "coordinates": [-37.5854190111161, -0.07691413185167215]}}, {"type": "Feature", "properties": {"norad_id": 41382, "name": "EUTELSAT 65 WEST A", "group": "eutelsat", "lat": -0.06693959567270792, "lon": -111.8745511912651, "alt_km": 35775.4089721277, "timestamp": "2025-12-08T15:42:49.450095+00:00", "meta": {"OBJECT_NAME": "EUTELSAT 65 WEST A", "OBJECT_ID": "2016-014A", "EPOCH": "2025-12-08T04:44:03.538752", "MEAN_MOTION": 1.0026917, "ECCENTRICITY": 0.00028626, "INCLINATION": 0.0492, "RA_OF_ASC_NODE": 0.7847, "ARG_OF_PERICENTER": 266.3312, "MEAN_ANOMALY": 175.887, "EPHEMERIS_TYPE": 0, "CLASSIFICATION_TYPE": "U", "NORAD_CAT_ID": 41382, "ELEMENT_SET_NO": 999, "REV_AT_EPOCH": 3562, "BSTAR": 0, "MEAN_MOTION_DOT": -2.73e-06, "MEAN_MOTION_DDOT": 0}, "tle": {"line1": "1 41382U 16014A   25342.19726318 -.00000273  00000+0  00000+0 0  9994", "line2": "2 41382   0.0492   0.7847 0002862 266.3312 175.8870  1.00269170 35620"}}, "geometry": {"type": "Point", "coordinates": [-111.8745511912651, -0.06693959567270792]}}, {"type": "Feature", "properties": {"norad_id": 41589, "name": "EUTELSAT 117 WEST B", "group": "eutelsat", "lat": 0.009683825876680268, "lon": -163.63650955382724, "alt_km": 35787.39879244957, "timestamp": "2025-12-08T15:42:49.450107+00:00", "meta": {"OBJECT_NAME": "EUTELSAT 117 WEST B", "OBJECT_ID": "2016-038B", "EPOCH": "2025-12-08T05:51:27.089856", "MEAN_MOTION": 1.00271014, "ECCENTRICITY": 3.727e-05, "INCLINATION": 0.0062, "RA_OF_ASC_NODE": 152.2728, "ARG_OF_PERICENTER": 268.7532, "MEAN_ANOMALY": 347.0922, "EPHEMERIS_TYPE": 0, "CLASSIFICATION_TYPE": "U", "NORAD_CAT_ID": 41589, "ELEMENT_SET_NO": 999, "REV_AT_EPOCH": 3474, "BSTAR": 0, "MEAN_MOTION_DOT": -9e-08, "MEAN_MOTION_DDOT": 0}, "tle": {"line1": "1 41589U 16038B   25342.24406354 -.00000009  00000+0  00000+0 0  9997", "line2": "2 41589   0.0062 152.2728 0000372 268.7532 347.0922  1.00271014 34740"}}, "geometry": {"type": "Point", "coordinates": [-163.63650955382724, 0.009683825876680268]}}]}